{
  "type": "FeatureCollection",
  "features": [
    {
      "type": "Feature",
      "properties": {
        "norad_id": 15362,
        "name": "NOVA 3",
        "group": "nnss",
        "lat": 48.35636421575483,
        "lon": -99.20497310390101,
        "alt_km": 1191.0854420352853,
        "timestamp": "2025-12-23T05:02:12.299308+00:00",
        "meta_object_name": "NOVA 3",
        "meta_object_id": "1984-110A",
        "meta_epoch": "2025-12-22T19:54:34.624224",
        "meta_mean_motion": 13.23045769,
        "meta_eccentricity": 0.00299327,
        "meta_inclination": 90.1219,
        "meta_ra_of_asc_node": 80.6534,
        "meta_arg_of_pericenter": 302.8865,
        "meta_mean_anomaly": 178.452,
        "meta_ephemeris_type": 0,
        "meta_classification_type": "U",
        "meta_norad_cat_id": 15362,
        "meta_element_set_no": 999,
        "meta_rev_at_epoch": 98832,
        "meta_bstar": 0.00022585614,
        "meta_mean_motion_dot": 1.03e-06,
        "meta_mean_motion_ddot": 0,
        "tle_line1": "1 15362U 84110A   25356.82956741  .00000103  00000+0  22586-3 0  9993",
        "tle_line2": "2 15362  90.1219  80.6534 0029932 302.8865 178.4520 13.23045769988321"
      },
      "geometry": {
        "type": "Point",
        "coordinates": [
          -99.20497310390101,
          48.35636421575483
        ]
      }
    },
    {
      "type": "Feature",
      "properties": {
        "norad_id": 15935,
        "name": "OSCAR 30",
        "group": "nnss",
        "lat": -18.95809728082295,
        "lon": 100.07512985501965,
        "alt_km": 1090.9699369542468,
        "timestamp": "2025-12-23T05:02:12.299318+00:00",
        "meta_object_name": "OSCAR 30",
        "meta_object_id": "1985-066A",
        "meta_epoch": "2025-12-22T20:45:25.028064",
        "meta_mean_motion": 13.36079881,
        "meta_eccentricity": 0.01690263,
        "meta_inclination": 90.1653,
        "meta_ra_of_asc_node": 100.0127,
        "meta_arg_of_pericenter": 55.6175,
        "meta_mean_anomaly": 68.9897,
        "meta_ephemeris_type": 0,
        "meta_classification_type": "U",
        "meta_norad_cat_id": 15935,
        "meta_element_set_no": 999,
        "meta_rev_at_epoch": 96588,
        "meta_bstar": 0.00016448465,
        "meta_mean_motion_dot": 1.01e-06,
        "meta_mean_motion_ddot": 0,
        "tle_line1": "1 15935U 85066A   25356.86487301  .00000101  00000+0  16448-3 0  9993",
        "tle_line2": "2 15935  90.1653 100.0127 0169026  55.6175  68.9897 13.36079881965882"
      },
      "geometry": {
        "type": "Point",
        "coordinates": [
          100.07512985501965,
          -18.95809728082295
        ]
      }
    },
    {
      "type": "Feature",
      "properties": {
        "norad_id": 15936,
        "name": "OSCAR 24",
        "group": "nnss",
        "lat": 52.63061804092204,
        "lon": 92.255978692214,
        "alt_km": 993.2037398837747,
        "timestamp": "2025-12-23T05:02:12.299329+00:00",
        "meta_object_name": "OSCAR 24",
        "meta_object_id": "1985-066B",
        "meta_epoch": "2025-12-22T17:00:50.070240",
        "meta_mean_motion": 13.35937122,
        "meta_eccentricity": 0.01701816,
        "meta_inclination": 90.1791,
        "meta_ra_of_asc_node": 92.4818,
        "meta_arg_of_pericenter": 62.4983,
        "meta_mean_anomaly": 102.6279,
        "meta_ephemeris_type": 0,
        "meta_classification_type": "U",
        "meta_norad_cat_id": 15936,
        "meta_element_set_no": 999,
        "meta_rev_at_epoch": 96776,
        "meta_bstar": 0.00014928667,
        "meta_mean_motion_dot": 9.3e-07,
        "meta_mean_motion_ddot": 0,
        "tle_line1": "1 15936U 85066B   25356.70891285  .00000093  00000+0  14929-3 0  9999",
        "tle_line2": "2 15936  90.1791  92.4818 0170181  62.4983 102.6279 13.35937122967763"
      },
      "geometry": {
        "type": "Point",
        "coordinates": [
          92.255978692214,
          52.63061804092204
        ]
      }
    },
    {
      "type": "Feature",
      "properties": {
        "norad_id": 17070,
        "name": "POLAR BEAR",
        "group": "nnss",
        "lat": -71.33809238786404,
        "lon": -177.78041696284572,
        "alt_km": 1016.7857113874643,
        "timestamp": "2025-12-23T05:02:12.299340+00:00",
        "meta_object_name": "POLAR BEAR",
        "meta_object_id": "1986-088A",
        "meta_epoch": "2025-12-22T18:57:32.537088",
        "meta_mean_motion": 13.75252809,
        "meta_eccentricity": 0.00412955,
        "meta_inclination": 89.617,
        "meta_ra_of_asc_node": 183.3713,
        "meta_arg_of_pericenter": 90.332,
        "meta_mean_anomaly": 280.8832,
        "meta_ephemeris_type": 0,
        "meta_classification_type": "U",
        "meta_norad_cat_id": 17070,
        "meta_element_set_no": 999,
        "meta_rev_at_epoch": 96117,
        "meta_bstar": 9.0388207e-05,
        "meta_mean_motion_dot": 9.9e-07,
        "meta_mean_motion_ddot": 0,
        "tle_line1": "1 17070U 86088A   25356.78995992  .00000099  00000+0  90388-4 0  9993",
        "tle_line2": "2 17070  89.6170 183.3713 0041295  90.3320 280.8832 13.75252809961179"
      },
      "geometry": {
        "type": "Point",
        "coordinates": [
          -177.78041696284572,
          -71.33809238786404
        ]
      }
    },
    {
      "type": "Feature",
      "properties": {
        "norad_id": 18361,
        "name": "OSCAR 27",
        "group": "nnss",
        "lat": 56.90411467589304,
        "lon": -99.7622884444918,
        "alt_km": 1059.199041388997,
        "timestamp": "2025-12-23T05:02:12.299350+00:00",
        "meta_object_name": "OSCAR 27",
        "meta_object_id": "1987-080A",
        "meta_epoch": "2025-12-22T19:29:31.902720",
        "meta_mean_motion": 13.4490871,
        "meta_eccentricity": 0.01037536,
        "meta_inclination": 90.3738,
        "meta_ra_of_asc_node": 79.649,
        "meta_arg_of_pericenter": 194.7719,
        "meta_mean_anomaly": 165.0392,
        "meta_ephemeris_type": 0,
        "meta_classification_type": "U",
        "meta_norad_cat_id": 18361,
        "meta_element_set_no": 999,
        "meta_rev_at_epoch": 87692,
        "meta_bstar": 0.00017203932,
        "meta_mean_motion_dot": 1.12e-06,
        "meta_mean_motion_ddot": 0,
        "tle_line1": "1 18361U 87080A   25356.81217480  .00000112  00000+0  17204-3 0  9994",
        "tle_line2": "2 18361  90.3738  79.6490 0103753 194.7719 165.0392 13.44908710876928"
      },
      "geometry": {
        "type": "Point",
        "coordinates": [
          -99.7622884444918,
          56.90411467589304
        ]
      }
    },
    {
      "type": "Feature",
      "properties": {
        "norad_id": 18362,
        "name": "OSCAR 29",
        "group": "nnss",
        "lat": 62.038916749690856,
        "lon": -99.1695393164092,
        "alt_km": 1098.1285787110646,
        "timestamp": "2025-12-23T05:02:12.299360+00:00",
        "meta_object_name": "OSCAR 29",
        "meta_object_id": "1987-080B",
        "meta_epoch": "2025-12-22T20:08:15.720576",
        "meta_mean_motion": 13.44450285,
        "meta_eccentricity": 0.01045724,
        "meta_inclination": 90.375,
        "meta_ra_of_asc_node": 80.1097,
        "meta_arg_of_pericenter": 217.9075,
        "meta_mean_anomaly": 267.5994,
        "meta_ephemeris_type": 0,
        "meta_classification_type": "U",
        "meta_norad_cat_id": 18362,
        "meta_element_set_no": 999,
        "meta_rev_at_epoch": 87645,
        "meta_bstar": 0.00017076308,
        "meta_mean_motion_dot": 1.1e-06,
        "meta_mean_motion_ddot": 0,
        "tle_line1": "1 18362U 87080B   25356.83907084  .00000110  00000+0  17076-3 0  9998",
        "tle_line2": "2 18362  90.3750  80.1097 0104572 217.9075 267.5994 13.44450285876459"
      },
      "geometry": {
        "type": "Point",
        "coordinates": [
          -99.1695393164092,
          62.038916749690856
        ]
      }
    },
    {
      "type": "Feature",
      "properties": {
        "norad_id": 19070,
        "name": "OSCAR 23",
        "group": "nnss",
        "lat": -13.420688528014734,
        "lon": 16.793335395036856,
        "alt_km": 1297.3854300742723,
        "timestamp": "2025-12-23T05:02:12.299371+00:00",
        "meta_object_name": "OSCAR 23",
        "meta_object_id": "1988-033A",
        "meta_epoch": "2025-12-22T19:07:39.023616",
        "meta_mean_motion": 13.27788756,
        "meta_eccentricity": 0.01903326,
        "meta_inclination": 90.3204,
        "meta_ra_of_asc_node": 16.704,
        "meta_arg_of_pericenter": 152.0139,
        "meta_mean_anomaly": 22.822,
        "meta_ephemeris_type": 0,
        "meta_classification_type": "U",
        "meta_norad_cat_id": 19070,
        "meta_element_set_no": 999,
        "meta_rev_at_epoch": 82386,
        "meta_bstar": 0.00014372117,
        "meta_mean_motion_dot": 8.1e-07,
        "meta_mean_motion_ddot": 0,
        "tle_line1": "1 19070U 88033A   25356.79697944  .00000081  00000+0  14372-3 0  9993",
        "tle_line2": "2 19070  90.3204  16.7040 0190332 152.0139  22.8220 13.27788756823861"
      },
      "geometry": {
        "type": "Point",
        "coordinates": [
          16.793335395036856,
          -13.420688528014734
        ]
      }
    }
  ]
}